#Pass ID: 20250129_090805_FENGYUN 3F
#Satellite: FENGYUN 3F
#Configuration: FENGYUN 3F
#Start time: 2025-01-29 09:08:10.078307

#LorettStation: 1.0.0 05.05.2024
#Station: Regia
#Location: 37.494653 lon 55.929028 lat
#TLE: 1 57490U 23111A   25028.86673620  .00000250  00000+0  13826-3 0  9997
#TLE: 2 57490  98.7439 101.6423 0001620 124.8904 235.2425 14.19984104 77290

#Time	Az	El	Level	SNR
#Closed at: 2025-01-29 09:08:05.080182